[{"OBJECT_NAME":"NOAA 17","OBJECT_ID":"2002-032A","EPOCH":"2026-03-05T14:33:39.566880","MEAN_MOTION":14.26186495,"ECCENTRICITY":0.00106601,"INCLINATION":98.8535,"RA_OF_ASC_NODE":29.1933,"ARG_OF_PERICENTER":294.7791,"MEAN_ANOMALY":65.2279,"EPHEMERIS_TYPE":0,"CLASSIFICATION_TYPE":"U","NORAD_CAT_ID":27453,"ELEMENT_SET_NO":999,"REV_AT_EPOCH":23222,"BSTAR":0.00016099379,"MEAN_MOTION_DOT":3.4e-6,"MEAN_MOTION_DDOT":0},{"OBJECT_NAME":"NOAA 18","OBJECT_ID":"2005-018A","EPOCH":"2026-03-05T13:52:52.788000","MEAN_MOTION":14.13709943,"ECCENTRICITY":0.00153475,"INCLINATION":98.8163,"RA_OF_ASC_NODE":145.7432,"ARG_OF_PERICENTER":86.3647,"MEAN_ANOMALY":273.928,"EPHEMERIS_TYPE":0,"CLASSIFICATION_TYPE":"U","NORAD_CAT_ID":28654,"ELEMENT_SET_NO":999,"REV_AT_EPOCH":7167,"BSTAR":7.6346845e-5,"MEAN_MOTION_DOT":1.01e-6,"MEAN_MOTION_DDOT":0},{"OBJECT_NAME":"NOAA 19","OBJECT_ID":"2009-005A","EPOCH":"2026-03-05T15:06:40.752576","MEAN_MOTION":14.13455956,"ECCENTRICITY":0.00130453,"INCLINATION":98.9614,"RA_OF_ASC_NODE":135.3938,"ARG_OF_PERICENTER":326.8468,"MEAN_ANOMALY":33.1885,"EPHEMERIS_TYPE":0,"CLASSIFICATION_TYPE":"U","NORAD_CAT_ID":33591,"ELEMENT_SET_NO":999,"REV_AT_EPOCH":87985,"BSTAR":6.7921612e-5,"MEAN_MOTION_DOT":8.3e-7,"MEAN_MOTION_DDOT":0},{"OBJECT_NAME":"SUOMI NPP","OBJECT_ID":"2011-061A","EPOCH":"2026-03-05T14:01:52.184928","MEAN_MOTION":14.19542227,"ECCENTRICITY":3.96e-5,"INCLINATION":98.7866,"RA_OF_ASC_NODE":6.22,"ARG_OF_PERICENTER":269.7026,"MEAN_ANOMALY":90.4105,"EPHEMERIS_TYPE":0,"CLASSIFICATION_TYPE":"U","NORAD_CAT_ID":37849,"ELEMENT_SET_NO":999,"REV_AT_EPOCH":74374,"BSTAR":9.2068262e-5,"MEAN_MOTION_DOT":1.5e-6,"MEAN_MOTION_DDOT":0},{"OBJECT_NAME":"NOAA 20 (JPSS-1)","OBJECT_ID":"2017-073A","EPOCH":"2026-03-05T14:22:57.982944","MEAN_MOTION":14.1953489,"ECCENTRICITY":0.00010265,"INCLINATION":98.7689,"RA_OF_ASC_NODE":5.0272,"ARG_OF_PERICENTER":143.0999,"MEAN_ANOMALY":217.0248,"EPHEMERIS_TYPE":0,"CLASSIFICATION_TYPE":"U","NORAD_CAT_ID":43013,"ELEMENT_SET_NO":999,"REV_AT_EPOCH":42977,"BSTAR":8.3055461e-5,"MEAN_MOTION_DOT":1.31e-6,"MEAN_MOTION_DDOT":0},{"OBJECT_NAME":"NOAA 21 (JPSS-2)","OBJECT_ID":"2022-150A","EPOCH":"2026-03-05T13:31:30.781344","MEAN_MOTION":14.19550862,"ECCENTRICITY":0.00025741,"INCLINATION":98.7551,"RA_OF_ASC_NODE":4.8768,"ARG_OF_PERICENTER":113.8834,"MEAN_ANOMALY":246.2612,"EPHEMERIS_TYPE":0,"CLASSIFICATION_TYPE":"U","NORAD_CAT_ID":54234,"ELEMENT_SET_NO":999,"REV_AT_EPOCH":17184,"BSTAR":8.1323148e-5,"MEAN_MOTION_DOT":1.28e-6,"MEAN_MOTION_DDOT":0}]
