NOAA 17                 
1 27453U 02032A   26064.60670795  .00000340  00000+0  16099-3 0  9990
2 27453  98.8535  29.1933 0010660 294.7791  65.2279 14.26186495232228
NOAA 18                 
1 28654U 05018A   26064.57838875  .00000101  00000+0  76347-4 0  9990
2 28654  98.8163 145.7432 0015347  86.3647 273.9280 14.13709943 71675
NOAA 19                 
1 33591U 09005A   26064.62963834  .00000083  00000+0  67922-4 0  9994
2 33591  98.9614 135.3938 0013045 326.8468  33.1885 14.13455956879850
SUOMI NPP               
1 37849U 11061A   26064.58463177  .00000150  00000+0  92068-4 0  9993
2 37849  98.7866   6.2200 0000396 269.7026  90.4105 14.19542227743748
NOAA 20 (JPSS-1)        
1 43013U 17073A   26064.59928221  .00000131  00000+0  83055-4 0  9994
2 43013  98.7689   5.0272 0001026 143.0999 217.0248 14.19534890429777
NOAA 21 (JPSS-2)        
1 54234U 22150A   26064.56355071  .00000128  00000+0  81323-4 0  9999
2 54234  98.7551   4.8768 0002574 113.8834 246.2612 14.19550862171849
